$$SOE
2459580.500000000, A.D. 2022-Jan-01 00:00:00.0000, 8.580697672231367E+07, -2.619877650098278E+08, -1.699899019927356E+07,
2459587.500000000, A.D. 2022-Jan-08 00:00:00.0000, 9.952351802358906E+07, -2.578165041234007E+08, -1.660872927500133E+07,
2459594.500000000, A.D. 2022-Jan-15 00:00:00.0000, 1.130125550696386E+08, -2.530556227108005E+08, -1.618048289286114E+07,
2459601.500000000, A.D. 2022-Jan-22 00:00:00.0000, 1.262453647106320E+08, -2.477207336856040E+08, -1.571553290217133E+07,
2459608.500000000, A.D. 2022-Jan-29 00:00:00.0000, 1.391945961238779E+08, -2.418291331271496E+08, -1.521526393653665E+07,
2459615.500000000, A.D. 2022-Feb-05 00:00:00.0000, 1.518343829215789E+08, -2.353996510682380E+08, -1.468115224520852E+07,
2459622.500000000, A.D. 2022-Feb-12 00:00:00.0000, 1.641404381959461E+08, -2.284524953816097E+08, -1.411475442447135E+07,
2459629.500000000, A.D. 2022-Feb-19 00:00:00.0000, 1.760901308805934E+08, -2.210090891712449E+08, -1.351769592370224E+07,
2459636.500000000, A.D. 2022-Feb-26 00:00:00.0000, 1.876625422469867E+08, -2.130919050800183E+08, -1.289165944529301E+07,
2459643.500000000, A.D. 2022-Mar-05 00:00:00.0000, 1.988385032137480E+08, -2.047242996631872E+08, -1.223837347037919E+07,
2459650.500000000, A.D. 2022-Mar-12 00:00:00.0000, 2.096006135490560E+08, -1.959303502160889E+08, -1.155960108620591E+07,
2459657.500000000, A.D. 2022-Mar-19 00:00:00.0000, 2.199332441788524E+08, -1.867346960995384E+08, -1.085712925020010E+07,
2459664.500000000, A.D. 2022-Mar-26 00:00:00.0000, 2.298225239863265E+08, -1.771623863603499E+08, -1.013275860344720E+07,
2459671.500000000, A.D. 2022-Apr-02 00:00:00.0000, 2.392563126926737E+08, -1.672387351951143E+08, -9.388293933506228E+06,
2459678.500000000, A.D. 2022-Apr-09 00:00:00.0000, 2.482241617197054E+08, -1.569891864387248E+08, -8.625535379334688E+06,
2459685.500000000, A.D. 2022-Apr-16 00:00:00.0000, 2.567172650812933E+08, -1.464391873189704E+08, -7.846270404952705E+06,
2459692.500000000, A.D. 2022-Apr-23 00:00:00.0000, 2.647284007307916E+08, -1.356140710203471E+08, -7.052266364812836E+06,
2459699.500000000, A.D. 2022-Apr-30 00:00:00.0000, 2.722518621424199E+08, -1.245389506719800E+08, -6.245263684284873E+06,
2459706.500000000, A.D. 2022-May-07 00:00:00.0000, 2.792833847608219E+08, -1.132386268619796E+08, -5.426970094331920E+06,
2459713.500000000, A.D. 2022-May-14 00:00:00.0000, 2.858200701891005E+08, -1.017375055661622E+08, -4.599055783138804E+06,
2459720.500000000, A.D. 2022-May-21 00:00:00.0000, 2.918603074533676E+08, -9.005952549365875E+07, -3.763149188903764E+06,
2459727.500000000, A.D. 2022-May-28 00:00:00.0000, 2.974036921019499E+08, -7.822809543275702E+07, -2.920833432185326E+06,
2459734.500000000, A.D. 2022-Jun-04 00:00:00.0000, 3.024509445102235E+08, -6.626604142461555E+07, -2.073643396570891E+06,
2459741.500000000, A.D. 2022-Jun-11 00:00:00.0000, 3.070038284824665E+08, -5.419556319160838E+07, -1.223063424722593E+06,
2459748.500000000, A.D. 2022-Jun-18 00:00:00.0000, 3.110650709947417E+08, -4.203819916938122E+07, -3.705255842527505E+05,
2459755.500000000, A.D. 2022-Jun-25 00:00:00.0000, 3.146382837887957E+08, -2.981479949292826E+07, 4.825915404621847E+05,
2459762.500000000, A.D. 2022-Jul-02 00:00:00.0000, 3.177278875217102E+08, -1.754550630268981E+07, 1.334963563271538E+06,
2459769.500000000, A.D. 2022-Jul-09 00:00:00.0000, 3.203390393224403E+08, -5.249740501236788E+06, 2.185320547183600E+06,
2459776.500000000, A.D. 2022-Jul-16 00:00:00.0000, 3.224775640528692E+08, 7.053806800443521E+06, 3.032446934539452E+06,
2459783.500000000, A.D. 2022-Jul-23 00:00:00.0000, 3.241498873389503E+08, 1.934717887921370E+07, 3.875181412919528E+06,
2459790.500000000, A.D. 2022-Jul-30 00:00:00.0000, 3.253629706318717E+08, 3.161315130172595E+07, 4.712416479296125E+06,
2459797.500000000, A.D. 2022-Aug-06 00:00:00.0000, 3.261242519857988E+08, 4.383522436690471E+07, 5.543097464984635E+06,
2459804.500000000, A.D. 2022-Aug-13 00:00:00.0000, 3.264415917570404E+08, 5.599761339935672E+07, 6.366221359153572E+06,
2459811.500000000, A.D. 2022-Aug-20 00:00:00.0000, 3.263232216393921E+08, 6.808523690481603E+07, 7.180835568230893E+06,
2459818.500000000, A.D. 2022-Aug-27 00:00:00.0000, 3.257776970475985E+08, 8.008370233139917E+07, 7.986036576936118E+06,
2459825.500000000, A.D. 2022-Sep-03 00:00:00.0000, 3.248138530067348E+08, 9.197928975330806E+07, 8.780968507381447E+06,
2459832.500000000, A.D. 2022-Sep-10 00:00:00.0000, 3.234407635209630E+08, 1.037589338860590E+08, 9.564821595180258E+06,
2459839.500000000, A.D. 2022-Sep-17 00:00:00.0000, 3.216677043144737E+08, 1.154102047761389E+08, 1.033683060214719E+07,
2459846.500000000, A.D. 2022-Sep-24 00:00:00.0000, 3.195041188543031E+08, 1.269212874201653E+08, 1.109627317566565E+07,
2459853.500000000, A.D. 2022-Oct-01 00:00:00.0000, 3.169595877350869E+08, 1.382809605597395E+08, 1.184246814803432E+07,
2459860.500000000, A.D. 2022-Oct-08 00:00:00.0000, 3.140438016646262E+08, 1.494785754049657E+08, 1.257477379520597E+07,
2459867.500000000, A.D. 2022-Oct-15 00:00:00.0000, 3.107665369388587E+08, 1.605040356854999E+08, 1.329258624986578E+07,
2459874.500000000, A.D. 2022-Oct-22 00:00:00.0000, 3.071376310483405E+08, 1.713477775252810E+08, 1.399533814227486E+07,
2459881.500000000, A.D. 2022-Oct-29 00:00:00.0000, 3.031669607494274E+08, 1.820007466992394E+08, 1.468249703669164E+07,
2459888.500000000, A.D. 2022-Nov-05 00:00:00.0000, 2.988644245296085E+08, 1.924543761366343E+08, 1.535356370056482E+07,
2459895.500000000, A.D. 2022-Nov-12 00:00:00.0000, 2.942399273349671E+08, 2.027005650470581E+08, 1.600807049543270E+07,
2459902.500000000, A.D. 2022-Nov-19 00:00:00.0000, 2.893033666859900E+08, 2.127316588084049E+08, 1.664557988243556E+07,
2459909.500000000, A.D. 2022-Nov-26 00:00:00.0000, 2.840646203001388E+08, 2.225404292950585E+08, 1.726568299004783E+07,
2459916.500000000, A.D. 2022-Dec-03 00:00:00.0000, 2.785335352513833E+08, 2.321200556936460E+08, 1.786799823109710E+07,
2459923.500000000, A.D. 2022-Dec-10 00:00:00.0000, 2.727199185831344E+08, 2.414641058695063E+08, 1.845216996875532E+07,
2459930.500000000, A.D. 2022-Dec-17 00:00:00.0000, 2.666335292765574E+08, 2.505665182916165E+08, 1.901786722869889E+07,
2459937.500000000, A.D. 2022-Dec-24 00:00:00.0000, 2.602840715677209E+08, 2.594215844737895E+08, 1.956478244288816E+07,
2459944.500000000, A.D. 2022-Dec-31 00:00:00.0000, 2.536811898634357E+08, 2.680239320561085E+08, 2.009263020132186E+07,
2459951.500000000, A.D. 2023-Jan-07 00:00:00.0000, 2.468344652789819E+08, 2.763685094968172E+08, 2.060114607871443E+07,
2459958.500000000, A.D. 2023-Jan-14 00:00:00.0000, 2.397534117332802E+08, 2.844505728700461E+08, 2.109008575587326E+07,
2459965.500000000, A.D. 2023-Jan-21 00:00:00.0000, 2.324474708647985E+08, 2.922656715983197E+08, 2.155922423550583E+07,
2459972.500000000, A.D. 2023-Jan-28 00:00:00.0000, 2.249260093614315E+08, 2.998096329256627E+08, 2.200835479999886E+07,
2459979.500000000, A.D. 2023-Feb-04 00:00:00.0000, 2.171983184252542E+08, 3.070785481487974E+08, 2.243728797620849E+07,
2459986.500000000, A.D. 2023-Feb-11 00:00:00.0000, 2.092736135078615E+08, 3.140687604004763E+08, 2.284585065477389E+07,
2459993.500000000, A.D. 2023-Feb-18 00:00:00.0000, 2.011610341916853E+08, 3.207768531497024E+08, 2.323388530144544E+07,
2460000.500000000, A.D. 2023-Feb-25 00:00:00.0000, 1.928696444256498E+08, 3.271996392423915E+08, 2.360124922181119E+07,
2460007.500000000, A.D. 2023-Mar-04 00:00:00.0000, 1.844084331674972E+08, 3.333341504829951E+08, 2.394781386981119E+07,
2460014.500000000, A.D. 2023-Mar-11 00:00:00.0000, 1.757863154138625E+08, 3.391776277363971E+08, 2.427346419527301E+07,
2460021.500000000, A.D. 2023-Mar-18 00:00:00.0000, 1.670121336186774E+08, 3.447275114794355E+08, 2.457809801999091E+07,
2460028.500000000, A.D. 2023-Mar-25 00:00:00.0000, 1.580946596591998E+08, 3.499814327376386E+08, 2.486162541849734E+07,
2460035.500000000, A.D. 2023-Apr-01 00:00:00.0000, 1.490425977365599E+08, 3.549372047889866E+08, 2.512396809637982E+07,
2460042.500000000, A.D. 2023-Apr-08 00:00:00.0000, 1.398645875669540E+08, 3.595928168488564E+08, 2.536505892239854E+07,
2460049.500000000, A.D. 2023-Apr-15 00:00:00.0000, 1.305692055007929E+08, 3.639464286118512E+08, 2.558484173722151E+07,
2460056.500000000, A.D. 2023-Apr-22 00:00:00.0000, 1.211649653510475E+08, 3.679963625825236E+08, 2.578327102272204E+07,
2460063.500000000, A.D. 2023-Apr-29 00:00:00.0000, 1.116603216455835E+08, 3.717410964374305E+08, 2.596031136429481E+07,
2460070.500000000, A.D. 2023-May-06 00:00:00.0000, 1.020636735251455E+08, 3.751792571825100E+08, 2.611593701129594E+07,
2460077.500000000, A.D. 2023-May-13 00:00:00.0000, 9.238336828952719E+07, 3.783096161944389E+08, 2.625013155046830E+07,
2460084.500000000, A.D. 2023-May-20 00:00:00.0000, 8.262770480696633E+07, 3.811310846404752E+08, 2.636288762940669E+07,
2460091.500000000, A.D. 2023-May-27 00:00:00.0000, 7.280493696355395E+07, 3.836427092347777E+08, 2.645420670868823E+07,
2460098.500000000, A.D. 2023-Jun-03 00:00:00.0000, 6.292327719538625E+07, 3.858436683456559E+08, 2.652409883833548E+07,
2460105.500000000, A.D. 2023-Jun-10 00:00:00.0000, 5.299090011382008E+07, 3.877332684293650E+08, 2.657258245419985E+07,
2460112.500000000, A.D. 2023-Jun-17 00:00:00.0000, 4.301594630057868E+07, 3.893109407206538E+08, 2.659968418017811E+07,
2460119.500000000, A.D. 2023-Jun-24 00:00:00.0000, 3.300652658117661E+07, 3.905762382272762E+08, 2.660543861059800E+07,
2460126.500000000, A.D. 2023-Jul-01 00:00:00.0000, 2.297072701928738E+07, 3.915288338506134E+08, 2.658988811657572E+07,
2460133.500000000, A.D. 2023-Jul-08 00:00:00.0000, 1.291661295056199E+07, 3.921685204496603E+08, 2.655308289628929E+07,
2460140.500000000, A.D. 2023-Jul-15 00:00:00.0000, 2.852230772033599E+06, 3.924952100083541E+08, 2.649508115394226E+07,
2460147.500000000, A.D. 2023-Jul-22 00:00:00.0000, -7.214389004061885E+06, 3.925089308647902E+08, 2.641594899970135E+07,
$$EOE